{
    "links": {
        "self": "http://www.neowsapp.com/rest/v1/neo/3796283?api_key=iIulBulltgU6a56xZRHN4H3l9WmuAYTsLGpBGhQ2"
    },
    "id": "3796283",
    "neo_reference_id": "3796283",
    "name": "(2017 YK8)",
    "designation": "2017 YK8",
    "nasa_jpl_url": "http://ssd.jpl.nasa.gov/sbdb.cgi?sstr=3796283",
    "absolute_magnitude_h": 22.9,
    "estimated_diameter": {
        "kilometers": {
            "estimated_diameter_min": 0.0699125232,
            "estimated_diameter_max": 0.1563291544
        },
        "meters": {
            "estimated_diameter_min": 69.9125232246,
            "estimated_diameter_max": 156.3291544087
        },
        "miles": {
            "estimated_diameter_min": 0.0434416145,
            "estimated_diameter_max": 0.097138403
        },
        "feet": {
            "estimated_diameter_min": 229.3718026961,
            "estimated_diameter_max": 512.8909429502
        }
    },
    "is_potentially_hazardous_asteroid": false,
    "close_approach_data": [
        {
            "close_approach_date": "2010-12-28",
            "close_approach_date_full": "2010-Dec-28 21:55",
            "epoch_date_close_approach": 1293573300000,
            "relative_velocity": {
                "kilometers_per_second": "11.0750380396",
                "kilometers_per_hour": "39870.1369424801",
                "miles_per_hour": "24773.7525907316"
            },
            "miss_distance": {
                "astronomical": "0.3924134816",
                "lunar": "152.6488443424",
                "kilometers": "58704221.006644192",
                "miles": "36477111.4673941696"
            },
            "orbiting_body": "Earth"
        },
        {
            "close_approach_date": "2017-12-23",
            "close_approach_date_full": "2017-Dec-23 08:50",
            "epoch_date_close_approach": 1514019000000,
            "relative_velocity": {
                "kilometers_per_second": "10.0364278372",
                "kilometers_per_hour": "36131.1402139938",
                "miles_per_hour": "22450.4854290785"
            },
            "miss_distance": {
                "astronomical": "0.3058409888",
                "lunar": "118.9721446432",
                "kilometers": "45753160.483173856",
                "miles": "28429695.6217409728"
            },
            "orbiting_body": "Earth"
        },
        {
            "close_approach_date": "2024-12-16",
            "close_approach_date_full": "2024-Dec-16 23:59",
            "epoch_date_close_approach": 1734393540000,
            "relative_velocity": {
                "kilometers_per_second": "9.9409714848",
                "kilometers_per_hour": "35787.4973453333",
                "miles_per_hour": "22236.9591143822"
            },
            "miss_distance": {
                "astronomical": "0.4071805897",
                "lunar": "158.3932493933",
                "kilometers": "60913348.924463939",
                "miles": "37849799.9031187982"
            },
            "orbiting_body": "Earth"
        }
    ],
    "orbital_data": {
        "orbit_id": "3",
        "orbit_determination_date": "2018-01-27 06:55:30",
        "first_observation_date": "2017-12-25",
        "last_observation_date": "2018-01-26",
        "data_arc_in_days": 32,
        "observations_used": 20,
        "orbit_uncertainty": "6",
        "minimum_orbit_intersection": ".299321",
        "jupiter_tisserand_invariant": "3.376",
        "epoch_osculation": "2459000.5",
        "eccentricity": ".4535963807529439",
        "semi_major_axis": "2.313807368535165",
        "inclination": "18.57369479176988",
        "ascending_node_longitude": "261.146001984733",
        "orbital_period": "1285.550751450462",
        "perihelion_distance": "1.264272720408121",
        "perihelion_argument": "204.2599814059237",
        "aphelion_distance": "3.363342016662209",
        "perihelion_time": "2459416.618714661663",
        "mean_anomaly": "243.4719383041245",
        "mean_motion": ".2800356186590214",
        "equinox": "J2000",
        "orbit_class": {
            "orbit_class_type": "AMO",
            "orbit_class_description": "Near-Earth asteroid orbits similar to that of 1221 Amor",
            "orbit_class_range": "1.017 AU < q (perihelion) < 1.3 AU"
        }
    },
    "is_sentry_object": false
}